[{"OBJECT_NAME":"STARLINK-31735","OBJECT_ID":"2024-112S","EPOCH":"2026-03-09T10:11:42.446112","MEAN_MOTION":15.30180903,"ECCENTRICITY":0.00012881,"INCLINATION":53.1604,"RA_OF_ASC_NODE":79.393,"ARG_OF_PERICENTER":95.0797,"MEAN_ANOMALY":265.0351,"EPHEMERIS_TYPE":0,"CLASSIFICATION_TYPE":"U","NORAD_CAT_ID":60054,"ELEMENT_SET_NO":999,"REV_AT_EPOCH":9855,"BSTAR":-4.3713601e-5,"MEAN_MOTION_DOT":-1.653e-5,"MEAN_MOTION_DDOT":0},{"OBJECT_NAME":"OBJECT N","OBJECT_ID":"2019-093N","EPOCH":"2026-03-09T21:41:56.087232","MEAN_MOTION":15.29897693,"ECCENTRICITY":0.0006278,"INCLINATION":98.0505,"RA_OF_ASC_NODE":226.9456,"ARG_OF_PERICENTER":33.3806,"MEAN_ANOMALY":326.7828,"EPHEMERIS_TYPE":0,"CLASSIFICATION_TYPE":"U","NORAD_CAT_ID":44891,"ELEMENT_SET_NO":999,"REV_AT_EPOCH":33957,"BSTAR":0.0010567776,"MEAN_MOTION_DOT":0.00030617,"MEAN_MOTION_DDOT":0}]
